{
  "type": "FeatureCollection",
  "features": [
    {
      "type": "Feature",
      "properties": {
        "norad_id": 33765,
        "name": "COSMOS 2251 DEB",
        "group": "cosmos-2251-debris",
        "lat": -72.18515457374876,
        "lon": 114.13548782383796,
        "alt_km": 498.683234150677,
        "timestamp": "2025-12-10T16:57:12.031332+00:00",
        "meta_object_name": "COSMOS 2251 DEB",
        "meta_object_id": "1993-036N",
        "meta_epoch": "2025-12-10T06:56:59.940096",
        "meta_mean_motion": 15.0974837,
        "meta_eccentricity": 0.0065913,
        "meta_inclination": 74.0091,
        "meta_ra_of_asc_node": 178.1723,
        "meta_arg_of_pericenter": 270.7694,
        "meta_mean_anomaly": 262.6375,
        "meta_ephemeris_type": 0,
        "meta_classification_type": "U",
        "meta_norad_cat_id": 33765,
        "meta_element_set_no": 999,
        "meta_rev_at_epoch": 89581,
        "meta_bstar": 0.002748,
        "meta_mean_motion_dot": 0.00046942,
        "meta_mean_motion_ddot": 0,
        "tle_line1": "1 33765U 93036N   25344.28958264  .00046942  00000+0  27480-2 0  9994",
        "tle_line2": "2 33765  74.0091 178.1723 0065913 270.7694 262.6375 15.09748370895811"
      },
      "geometry": {
        "type": "Point",
        "coordinates": [
          114.13548782383796,
          -72.18515457374876
        ]
      }
    },
    {
      "type": "Feature",
      "properties": {
        "norad_id": 33766,
        "name": "COSMOS 2251 DEB",
        "group": "cosmos-2251-debris",
        "lat": -39.78354966547155,
        "lon": 125.02071913097865,
        "alt_km": 739.6256266101509,
        "timestamp": "2025-12-10T16:57:12.031343+00:00",
        "meta_object_name": "COSMOS 2251 DEB",
        "meta_object_id": "1993-036P",
        "meta_epoch": "2025-12-10T12:07:30.372096",
        "meta_mean_motion": 14.34923421,
        "meta_eccentricity": 0.0064044,
        "meta_inclination": 74.1856,
        "meta_ra_of_asc_node": 139.0367,
        "meta_arg_of_pericenter": 343.0325,
        "meta_mean_anomaly": 16.8685,
        "meta_ephemeris_type": 0,
        "meta_classification_type": "U",
        "meta_norad_cat_id": 33766,
        "meta_element_set_no": 999,
        "meta_rev_at_epoch": 87713,
        "meta_bstar": 0.00076093,
        "meta_mean_motion_dot": 2.19e-05,
        "meta_mean_motion_ddot": 0,
        "tle_line1": "1 33766U 93036P   25344.50521264  .00002190  00000+0  76093-3 0  9998",
        "tle_line2": "2 33766  74.1856 139.0367 0064044 343.0325  16.8685 14.34923421877138"
      },
      "geometry": {
        "type": "Point",
        "coordinates": [
          125.02071913097865,
          -39.78354966547155
        ]
      }
    },
    {
      "type": "Feature",
      "properties": {
        "norad_id": 33768,
        "name": "COSMOS 2251 DEB",
        "group": "cosmos-2251-debris",
        "lat": 74.05175203358617,
        "lon": -48.67159910644862,
        "alt_km": 924.3785728382281,
        "timestamp": "2025-12-10T16:57:12.031371+00:00",
        "meta_object_name": "COSMOS 2251 DEB",
        "meta_object_id": "1993-036R",
        "meta_epoch": "2025-12-10T10:21:26.307936",
        "meta_mean_motion": 13.58451822,
        "meta_eccentricity": 0.0366215,
        "meta_inclination": 74.0685,
        "meta_ra_of_asc_node": 223.5926,
        "meta_arg_of_pericenter": 21.8385,
        "meta_mean_anomaly": 160.2515,
        "meta_ephemeris_type": 0,
        "meta_classification_type": "U",
        "meta_norad_cat_id": 33768,
        "meta_element_set_no": 999,
        "meta_rev_at_epoch": 83264,
        "meta_bstar": 0.00050505,
        "meta_mean_motion_dot": 5.49e-06,
        "meta_mean_motion_ddot": 0,
        "tle_line1": "1 33768U 93036R   25344.43155449  .00000549  00000+0  50505-3 0  9996",
        "tle_line2": "2 33768  74.0685 223.5926 0366215  21.8385 160.2515 13.58451822832640"
      },
      "geometry": {
        "type": "Point",
        "coordinates": [
          -48.67159910644862,
          74.05175203358617
        ]
      }
    },
    {
      "type": "Feature",
      "properties": {
        "norad_id": 33779,
        "name": "COSMOS 2251 DEB",
        "group": "cosmos-2251-debris",
        "lat": 39.00271587872259,
        "lon": -171.9378639193047,
        "alt_km": 668.4013319806827,
        "timestamp": "2025-12-10T16:57:12.031383+00:00",
        "meta_object_name": "COSMOS 2251 DEB",
        "meta_object_id": "1993-036U",
        "meta_epoch": "2025-12-09T23:29:45.646656",
        "meta_mean_motion": 14.70346506,
        "meta_eccentricity": 0.0017184,
        "meta_inclination": 74.0449,
        "meta_ra_of_asc_node": 176.0751,
        "meta_arg_of_pericenter": 209.9028,
        "meta_mean_anomaly": 302.4357,
        "meta_ephemeris_type": 0,
        "meta_classification_type": "U",
        "meta_norad_cat_id": 33779,
        "meta_element_set_no": 999,
        "meta_rev_at_epoch": 88487,
        "meta_bstar": 0.0024050725,
        "meta_mean_motion_dot": 0.00014571,
        "meta_mean_motion_ddot": 0,
        "tle_line1": "1 33779U 93036U   25343.97900054  .00014571  00000+0  24051-2 0  9992",
        "tle_line2": "2 33779  74.0449 176.0751 0017184 209.9028 302.4357 14.70346506884872"
      },
      "geometry": {
        "type": "Point",
        "coordinates": [
          -171.9378639193047,
          39.00271587872259
        ]
      }
    },
    {
      "type": "Feature",
      "properties": {
        "norad_id": 33782,
        "name": "COSMOS 2251 DEB",
        "group": "cosmos-2251-debris",
        "lat": 20.137563444647387,
        "lon": -72.66588923909072,
        "alt_km": 744.6092440810826,
        "timestamp": "2025-12-10T16:57:12.031395+00:00",
        "meta_object_name": "COSMOS 2251 DEB",
        "meta_object_id": "1993-036X",
        "meta_epoch": "2025-12-09T13:03:54.052704",
        "meta_mean_motion": 14.40434503,
        "meta_eccentricity": 0.0020644,
        "meta_inclination": 74.0339,
        "meta_ra_of_asc_node": 283.4561,
        "meta_arg_of_pericenter": 348.7434,
        "meta_mean_anomaly": 128.9341,
        "meta_ephemeris_type": 0,
        "meta_classification_type": "U",
        "meta_norad_cat_id": 33782,
        "meta_element_set_no": 999,
        "meta_rev_at_epoch": 88080,
        "meta_bstar": 0.00079266,
        "meta_mean_motion_dot": 2.499e-05,
        "meta_mean_motion_ddot": 0,
        "tle_line1": "1 33782U 93036X   25343.54437561  .00002499  00000+0  79266-3 0  9992",
        "tle_line2": "2 33782  74.0339 283.4561 0020644 348.7434 128.9341 14.40434503880809"
      },
      "geometry": {
        "type": "Point",
        "coordinates": [
          -72.66588923909072,
          20.137563444647387
        ]
      }
    },
    {
      "type": "Feature",
      "properties": {
        "norad_id": 33785,
        "name": "COSMOS 2251 DEB",
        "group": "cosmos-2251-debris",
        "lat": 13.183063662409324,
        "lon": 67.80171521295819,
        "alt_km": 645.2110657946596,
        "timestamp": "2025-12-10T16:57:12.031405+00:00",
        "meta_object_name": "COSMOS 2251 DEB",
        "meta_object_id": "1993-036AA",
        "meta_epoch": "2025-12-10T09:04:37.616160",
        "meta_mean_motion": 14.70396758,
        "meta_eccentricity": 0.0022116,
        "meta_inclination": 73.8673,
        "meta_ra_of_asc_node": 64.5571,
        "meta_arg_of_pericenter": 4.4128,
        "meta_mean_anomaly": 72.9162,
        "meta_ephemeris_type": 0,
        "meta_classification_type": "U",
        "meta_norad_cat_id": 33785,
        "meta_element_set_no": 999,
        "meta_rev_at_epoch": 88472,
        "meta_bstar": 0.0031266,
        "meta_mean_motion_dot": 0.00019014,
        "meta_mean_motion_ddot": 0,
        "tle_line1": "1 33785U 93036AA  25344.37821315  .00019014  00000+0  31266-2 0  9999",
        "tle_line2": "2 33785  73.8673  64.5571 0022116   4.4128  72.9162 14.70396758884727"
      },
      "geometry": {
        "type": "Point",
        "coordinates": [
          67.80171521295819,
          13.183063662409324
        ]
      }
    },
    {
      "type": "Feature",
      "properties": {
        "norad_id": 33789,
        "name": "COSMOS 2251 DEB",
        "group": "cosmos-2251-debris",
        "lat": 62.411905791700335,
        "lon": 124.00197257789506,
        "alt_km": 1058.651525136066,
        "timestamp": "2025-12-10T16:57:12.031416+00:00",
        "meta_object_name": "COSMOS 2251 DEB",
        "meta_object_id": "1993-036AE",
        "meta_epoch": "2025-12-10T10:02:09.944160",
        "meta_mean_motion": 13.88787913,
        "meta_eccentricity": 0.0240279,
        "meta_inclination": 74.0651,
        "meta_ra_of_asc_node": 91.3461,
        "meta_arg_of_pericenter": 207.4869,
        "meta_mean_anomaly": 221.1101,
        "meta_ephemeris_type": 0,
        "meta_classification_type": "U",
        "meta_norad_cat_id": 33789,
        "meta_element_set_no": 999,
        "meta_rev_at_epoch": 85063,
        "meta_bstar": 0.0013086,
        "meta_mean_motion_dot": 1.966e-05,
        "meta_mean_motion_ddot": 0,
        "tle_line1": "1 33789U 93036AE  25344.41817065  .00001966  00000+0  13086-2 0  9992",
        "tle_line2": "2 33789  74.0651  91.3461 0240279 207.4869 221.1101 13.88787913850634"
      },
      "geometry": {
        "type": "Point",
        "coordinates": [
          124.00197257789506,
          62.411905791700335
        ]
      }
    }
  ]
}